PROBA-1                 
1 26958U 01049B   26195.21721384  .00001503  00000+0  99891-4 0  9993
2 26958  97.9603 204.6950 0055851  33.0193 327.4501 15.07614122347695
CUTE-1 (CO-55)          
1 27844U 03031E   26195.01226219  .00000150  00000+0  83592-4 0  9994
2 27844  98.6742 203.2342 0010809 105.7080 254.5292 14.24351102195498
CUBESAT XI-IV (CO-57)   
1 27848U 03031J   26194.52222380  .00000129  00000+0  75510-4 0  9995
2 27848  98.6773 202.4416 0010486 123.7879 236.4299 14.23634003195125
APRIZESAT 4             
1 35684U 09041D   26195.16202862  .00000318  00000+0  44743-4 0  9997
2 35684  98.1404 271.0193 0042167 232.9418 126.7936 14.83912969915366
APRIZESAT 3             
1 35686U 09041F   26194.98195936  .00001002  00000+0  91336-4 0  9992
2 35686  98.2096 349.4951 0060874 339.9454  19.9374 14.96308721920387
PROBA-2                 
1 36037U 09059B   26195.13164003  .00000079  00000+0  28961-4 0  9998
2 36037  98.2458  18.1120 0012929 192.0590 168.0300 14.54873440885446
APRIZESAT 5             
1 37792U 11044E   26194.76011343  .00000397  00000+0  57646-4 0  9995
2 37792  98.2450 128.5549 0050704 277.4380  82.1071 14.81126131802725
APRIZESAT 6             
1 37793U 11044F   26194.70352876  .00000390  00000+0  62464-4 0  9996
2 37793  98.2340 105.7424 0043182   3.0266  54.5582 14.76955496801065
PROBA-V                 
1 39159U 13021A   26194.89758001  .00000019  00000+0  26506-4 0  9996
2 39159  98.3605 172.1880 0005295  63.1260 297.0460 14.23603313684918
APRIZESAT 7             
1 39416U 13066A   26195.12178797  .00000426  00000+0  47577-4 0  9999
2 39416  97.7722 147.9572 0037173 120.7358 239.7531 14.91617848685245
APRIZESAT 8             
1 39425U 13066K   26195.11288941  .00000382  00000+0  47412-4 0  9990
2 39425  97.8230 142.2076 0045395 195.4638 164.5194 14.87695568683677
BUGSAT-1 (TITA)         
1 40014U 14033E   26195.23484341  .00003386  00000+0  17904-3 0  9995
2 40014  98.0441 289.3705 0029210  89.1885 271.2693 15.15876160659936
SAUDISAT 4              
1 40016U 14033G   26194.96743157  .00000239  00000+0  38295-4 0  9990
2 40016  97.7615 340.1811 0044361 348.0919  11.9240 14.79574917650033
APRIZESAT 9             
1 40018U 14033J   26195.15334509  .00000328  00000+0  55512-4 0  9991
2 40018  97.9092 327.6976 0067419 113.2187 247.6140 14.74251834647539
APRIZESAT 10            
1 40019U 14033K   26195.13343213  .00000305  00000+0  55777-4 0  9990
2 40019  97.9680 321.4965 0078669 186.7491 173.2663 14.70910164646217
TECHDEMOSAT-1 (TDS-1)   
1 40076U 14037H   26194.93447512  .00004780  00000+0  26999-3 0  9995
2 40076  98.3822 189.8077 0006778 162.8178 197.3282 15.13668255652278
TECHNOSAT               
1 42829U 17042E   26195.04287340  .00001918  00000+0  13854-3 0  9992
2 42829  97.4314 351.6848 0017539   7.2436 352.9041 15.05107048490746
FLYING LAPTOP           
1 42831U 17042G   26195.18031697  .00001917  00000+0  15288-3 0  9994
2 42831  97.4795 349.6965 0019737  35.8212 324.4332 15.01308283490501
HAWK-A                  
1 43765U 18099H   26195.12291875  .00004032  00000+0  16205-3 0  9995
2 43765  97.3900 247.0105 0034581 187.7545 172.3163 15.24956378417209
HAWK-B                  
1 43794U 18099AN  26195.11109128  .00003561  00000+0  15202-3 0  9997
2 43794  97.3950 246.3570 0031246 205.9479 154.0193 15.23107688417131
HAWK-C                  
1 43799U 18099AT  26195.16893369  .00005068  00000+0  18131-3 0  9992
2 43799  97.3877 248.1022 0040189 187.3959 172.6693 15.28480719418033
SALSAT                  
1 46495U 20068K   26194.96022582  .00004471  00000+0  15597-3 0  9995
2 46495  97.8856 199.6626 0009069 197.5036 162.5892 15.30161661319452
HAWK-2C                 
1 47502U 21006CT  26195.07838543  .00004070  00000+0  12214-3 0  9991
2 47502  97.2267 238.8548 0008632 103.9548 256.2656 15.34980823303629
HAWK-2A                 
1 47505U 21006CW  26195.14580985  .00003857  00000+0  11584-3 0  9997
2 47505  97.2309 239.6145 0008169 107.1081 253.1058 15.34995713303631
HAWK-2B                 
1 47508U 21006CZ  26195.07423787  .00004533  00000+0  13513-3 0  9994
2 47508  97.2177 237.8339 0008704 105.8558 254.3646 15.35126075303624
HAWK-3B                 
1 48931U 21059BE  26195.08162455  .00030845  00000+0  23901-3 0  9993
2 48931  97.6628  34.3783 0004360 202.0717 158.0358 15.71794570282070
HAWK-3C                 
1 48948U 21059BX  26195.14497199  .00029060  00000+0  22520-3 0  9997
2 48948  97.6749  40.1797 0004667 202.8329 157.2727 15.71802562282082
HAWK-3A                 
1 48957U 21059CG  26195.08119664  .00029118  00000+0  22570-3 0  9997
2 48957  97.6692  37.2932 0004511 205.2033 154.9010 15.71797253282072
HAWK-5C                 
1 52754U 22057Y   26195.19055884  .00011491  00000+0  19063-3 0  9999
2 52754  97.6608 356.6217 0002877 351.0827   9.0373 15.52302528230539
HAWK-5B                 
1 52756U 22057AA  26195.19037303  .00011201  00000+0  18587-3 0  9996
2 52756  97.6623 354.9748 0003550 336.6567  23.4523 15.52299787230536
HAWK-5A                 
1 52757U 22057AB  26195.19017711  .00011265  00000+0  18692-3 0  9995
2 52757  97.6617 355.8051 0003423 342.5028  17.6106 15.52300657230535
